ONEWEB-0196             
1 48218U 21031J   25199.51668082  .00000117  00000+0  28093-3 0  9995
2 48218  87.9055 356.0973 0001861  91.0395 269.0948 13.14503081204397
ONEWEB-0183             
1 48219U 21031K   25199.49128808 -.00000374  00000+0 -10431-2 0  9993
2 48219  87.9057 356.1141 0001515 100.0189 260.1111 13.14487820204482
ONEWEB-0185             
1 48220U 21031L   25199.51745879  .00000148  00000+0  36565-3 0  9995
2 48220  87.9049 356.0753 0001403  93.2119 266.9171 13.14503910204417
ONEWEB-0187             
1 48221U 21031M   25199.49750332  .00000250  00000+0  64056-3 0  9993
2 48221  87.9054 356.1255 0001586  87.6206 272.5105 13.14504087204425
ONEWEB-0192             
1 48222U 21031N   25199.46751809 -.00000182  00000+0 -52414-3 0  9992
2 48222  87.9051 356.1238 0001868  91.1373 268.9971 13.14503507204338
ONEWEB-0219             
1 48223U 21031P   25199.44690805  .00000025  00000+0  33317-4 0  9995
2 48223  87.9054 356.1006 0001681  90.2899 269.8424 13.14503382204537
ONEWEB-0202             
1 48224U 21031Q   25199.50399742  .00000239  00000+0  61009-3 0  9994
2 48224  87.9052 356.1040 0002130  73.4474 286.6890 13.14502864204523
ONEWEB-0204             
1 48225U 21031R   25199.46196333 -.00000145  00000+0 -42523-3 0  9999
2 48225  87.9035 356.1093 0001675 102.5107 257.6210 13.14503499204410
